STARLINK-33848          
1 63705C 25087J   26117.76298611 -.00017611  00000+0 -59348-3 0  1171
2 63705  53.1598 351.4599 0001218  88.3238 326.2959 15.30204327    18
STARLINK-33995          
1 63706C 25087K   26117.76437500 -.00006150  00000+0 -20721-3 0  1173
2 63706  53.1592 351.9104 0001142  85.8826 103.7234 15.30204596    13
STARLINK-33982          
1 63707C 25087L   26117.75118056 -.00002515  00000+0 -84806-4 0  1171
2 63707  53.1604 351.5794 0001259  91.7762 222.9063 15.30175202    18
STARLINK-33915          
1 63708C 25087M   26117.75951389 -.00008609  00000+0 -29010-3 0  1171
2 63708  53.1609 351.6706 0001170  88.5126 208.0783 15.30200886    19
STARLINK-33862          
1 63709C 25087N   26117.77826389 -.00025299  00000+0 -85250-3 0  1177
2 63709  53.1607 351.5142 0001262  88.3228 346.5102 15.30210738    14
STARLINK-33920          
1 63710C 25087P   26117.78451389 -.00052367  00000+0 -17628-2 0  1173
2 63710  53.1604 351.7389 0001160  84.6145 256.7423 15.30256577    11
STARLINK-33580          
1 63711C 25087Q   26117.73034722  .00005658  00000+0  19065-3 0  1174
2 63711  53.1591 352.0933 0001256  97.4302 252.9900 15.30195614    11
STARLINK-33783          
1 63712C 25087R   26117.74284722  .00003263  00000+0  10994-3 0  1175
2 63712  53.1608 351.9073 0001136  89.4124  33.8896 15.30196214    11
STARLINK-33773          
1 63713C 25087S   26117.74076389 -.00103410  00000+0 -33247-2 0  1176
2 63713  53.1595 351.5310 0001332  99.3495 207.9712 15.31761677    19
STARLINK-33745          
1 63714C 25087T   26117.75812500 -.00023445  00000+0 -79001-3 0  1179
2 63714  53.1592 351.4227 0001191  96.8136 320.0869 15.30210588    19
STARLINK-33728          
1 63715C 25087U   26117.73590278 -.00036651  00000+0 -12362-2 0  1172
2 63715  53.1601 351.6035 0001128  92.2647 161.4407 15.30185848    12
STARLINK-33749          
1 63716C 25087V   26117.75048611 -.00000766  00000+0 -25806-4 0  1171
2 63716  53.1600 351.9266 0001135  84.8363  51.4813 15.30200427    11
STARLINK-33725          
1 63717C 25087W   26117.71506944  .00010962  00000+0  36990-3 0  1178
2 63717  53.1603 351.7352 0001656  94.8481  26.6966 15.30148666    18
STARLINK-33641          
1 63718C 25087X   26117.76229167 -.00001968  00000+0 -63299-4 0  1174
2 63718  53.1607 351.6821 0001097  99.0068 198.3185 15.31693451    18
STARLINK-33727          
1 63719C 25087Y   26117.71854167  .00009205  00000+0  27924-3 0  1178
2 63719  53.1595 351.5149 0000923  99.0364 147.2178 15.33554411    12
STARLINK-33757          
1 63720C 25087Z   26117.76715278 -.00017031  00000+0 -57382-3 0  1173
2 63720  53.1610 351.6062 0001204  81.1006 269.2186 15.30210773    16
STARLINK-33774          
1 63721C 25087AA  26117.76298611 -.00003561  00000+0 -11451-3 0  1171
2 63721  53.1609 351.7836 0001250  89.8256 159.8158 15.31709020    10
STARLINK-33767          
1 63722C 25087AB  26117.78868056 -.00028243  00000+0 -95176-3 0  1170
2 63722  53.1601 351.3700 0001245  93.8867  84.9025 15.30209810    18
STARLINK-33806          
1 63723C 25087AC  26117.74701389 -.00009008  00000+0 -30350-3 0  1173
2 63723  53.1607 351.6312 0001239  93.7504 180.4671 15.30208293    10
STARLINK-11677 [DTC]    
1 63751C 25089A   26117.77479167 -.00014664  00000+0 -11386-3 0  1177
2 63751  43.0011 356.6944 0001879 258.9213  34.4046 15.70851039    16
STARLINK-11702 [DTC]    
1 63752C 25089B   26117.77062500  .00032359  00000+0  25132-3 0  1170
2 63752  43.0008 356.3449 0001821 261.6638 158.3777 15.70823612    12
STARLINK-11706 [DTC]    
1 63753C 25089C   26117.74770833  .00042761  00000+0  33206-3 0  1172
2 63753  43.0009 356.2586 0001748 263.9019 116.5753 15.70821497    10
STARLINK-11662 [DTC]    
1 63754C 25089D   26117.77131944  .00028322  00000+0  22000-3 0  1177
2 63754  43.0009 356.4896 0001624 257.0097 106.8505 15.70822030    11
STARLINK-11681 [DTC]    
1 63755C 25089E   26117.73937500  .00065118  00000+0  50584-3 0  1178
2 63755  43.0012 356.8311 0001759 255.3336 227.5459 15.70802502    19
STARLINK-11688 [DTC]    
1 63756C 25089F   26117.72409722  .00069966  00000+0  54355-3 0  1173
2 63756  43.0010 356.6980 0001838 259.1191 227.4357 15.70798043    17
STARLINK-11676 [DTC]    
1 63757C 25089G   26117.72756944  .00055729  00000+0  43287-3 0  1179
2 63757  43.0010 356.2282 0001826 256.2960  70.2936 15.70809149    15
STARLINK-11705 [DTC]    
1 63758C 25089H   26117.78104167  .00009112  00000+0  70750-4 0  1171
2 63758  43.0012 356.5045 0001450 259.9539 128.8856 15.70841737    13
STARLINK-11703 [DTC]    
1 63759C 25089J   26117.72479167  .00071930  00000+0  55883-3 0  1177
2 63759  43.0007 356.5428 0001522 269.8925 280.7239 15.70796871    13
STARLINK-11701 [DTC]    
1 63760C 25089K   26117.74562500  .00052728  00000+0  40964-3 0  1173
2 63760  43.0009 356.1932 0001599 267.4544 131.2999 15.70806779    10
STARLINK-11660 [DTC]    
1 63761C 25089L   26117.75812500  .00048111  00000+0  37371-3 0  1172
2 63761  43.0006 356.2671 0001618 271.9795 137.4208 15.70812594    12
STARLINK-11699 [DTC]    
1 63762C 25089M   26117.74215278  .00044103  00000+0  34236-3 0  1175
2 63762  43.0011 356.9609 0001826 269.2593 169.1915 15.70828612    19
STARLINK-11693 [DTC]    
1 63763C 25089N   26117.78659722  .00026128  00000+0  20304-3 0  1174
2 63763  43.0008 356.1824 0001361 262.4212 272.9773 15.70814076    18
STARLINK-33760          
1 63764C 25089P   26117.78312500 -.00013880  00000+0 -50287-3 0  1171
2 63764  42.9996 128.1004 0001361 272.6186 113.3979 15.27576144    12
STARLINK-33941          
1 63765C 25089Q   26117.75743056 -.00028710  00000+0 -10403-2 0  1176
2 63765  42.9997 128.2790 0001495 261.0389 329.3850 15.27578704    13
STARLINK-33824          
1 63766C 25089R   26117.74562500 -.00023347  00000+0 -84585-3 0  1173
2 63766  43.0006 128.5704 0001292 273.6926 159.7429 15.27581142    13
STARLINK-33808          
1 63767C 25089S   26117.73381944 -.00027499  00000+0 -99628-3 0  1170
2 63767  43.0011 128.2575 0001511 272.9825 251.0924 15.27583410    13
STARLINK-33844          
1 63768C 25089T   26117.77340278 -.00017378  00000+0 -62905-3 0  1173
2 63768  43.0029 127.7849 0001486 262.0830 225.9631 15.27606599    17
STARLINK-33907          
1 63769C 25089U   26117.71784722 -.00025314  00000+0 -91647-3 0  1178
2 63769  43.0002 128.4160 0002016 261.4747 146.2905 15.27604790    13
STARLINK-33884          
1 63770C 25089V   26117.77687500 -.00016453  00000+0 -59618-3 0  1178
2 63770  43.0032 127.7793 0001638 265.9709 234.2139 15.27572411    19
STARLINK-33841          
1 63771C 25089W   26117.77131944 -.00016559  00000+0 -59995-3 0  1170
2 63771  43.0013 127.9089 0001588 272.1565 154.9842 15.27576302    15
STARLINK-33769          
1 63773C 25089X   26117.73381944 -.00032427  00000+0 -11744-2 0  1176
2 63773  43.0027 127.9894 0001406 273.2066   3.9262 15.27596059    13
STARLINK-33914          
1 63774C 25089Y   26117.77270833 -.00019049  00000+0 -69017-3 0  1177
2 63774  43.0024 124.1077 0001596 266.4152 293.0935 15.27577998    13
STARLINK-33932          
1 63775C 25091A   26117.77687500 -.00030245  00000+0 -10957-2 0  1173
2 63775  43.0005 135.1550 0001548 269.8282   2.2906 15.27586100    12
STARLINK-33930          
1 63776C 25091B   26117.76854167 -.00025004  00000+0 -90582-3 0  1178
2 63776  43.0025 135.6676 0001439 267.2962 127.8401 15.27584559    15
STARLINK-33911          
1 63777C 25091C   26117.74145833 -.00023903  00000+0 -86604-3 0  1176
2 63777  42.9995 128.3566 0001431 273.9055 179.1633 15.27580038    11
STARLINK-33938          
1 63778C 25091D   26117.74145833 -.00030855  00000+0 -11174-2 0  1170
2 63778  42.9996 135.5812 0001299 275.2462  69.7692 15.27597903    14
STARLINK-33881          
1 63779C 25091E   26117.73798611 -.00032073  00000+0 -11618-2 0  1175
2 63779  43.0023 135.9275 0001459 268.2868 283.3190 15.27592086    19
STARLINK-33846          
1 63780C 25091F   26117.77548611 -.00024116  00000+0 -87374-3 0  1176
2 63780  43.0012 135.5756 0001282 266.9724 187.7103 15.27580792    11
STARLINK-33883          
1 63781C 25091G   26117.75534722 -.00028902  00000+0 -10471-2 0  1173
2 63781  43.0010 135.6364 0001234 266.0017  99.0313 15.27585124    11
STARLINK-33842          
1 63782C 25091H   26117.75256944 -.00024915  00000+0 -90275-3 0  1172
2 63782  42.9998 135.4664 0001278 275.8234 151.7421 15.27579389    15
STARLINK-33892          
1 63783C 25091J   26117.72965278 -.00032424  00000+0 -11738-2 0  1177
2 63783  43.0002 135.5773 0001319 277.5158  30.7913 15.27610280    14
STARLINK-33933          
1 63784C 25091K   26117.75118056 -.00022746  00000+0 -82408-3 0  1174
2 63784  43.0016 128.5165 0001098 269.4989 152.1911 15.27582072    17
STARLINK-33906          
1 63785C 25091L   26117.73312500  .01920500  00000+0  59197-2 0  1175
2 63785  42.9990 130.6052 0002069 269.6325 294.4810 15.89817310    13
STARLINK-33923          
1 63786C 25091M   26117.76090278 -.00027277  00000+0 -98758-3 0  1171
2 63786  42.9995 135.4861 0001207 290.7377 154.3359 15.27605654    15
STARLINK-33947          
1 63787C 25091N   26117.78173611 -.00021273  00000+0 -77071-3 0  1172
2 63787  43.0023 135.6618 0001489 267.4339 172.1397 15.27579702    17
STARLINK-33882          
1 63788C 25091P   26117.73520833 -.00029299  00000+0 -10614-2 0  1175
2 63788  42.9998 135.5250 0001429 263.1037  82.8898 15.27586550    12
STARLINK-33875          
1 63789C 25091Q   26117.72687500 -.00028784  00000+0 -10426-2 0  1179
2 63789  43.0005 135.4164 0001444 263.9699  99.9151 15.27590205    19
STARLINK-33869          
1 63790C 25091R   26117.77131944 -.00030125  00000+0 -10915-2 0  1177
2 63790  43.0012 135.0797 0001556 273.5004  10.4918 15.27582827    18
STARLINK-33935          
1 63791C 25091S   26117.73381944 -.00032950  00000+0 -11937-2 0  1174
2 63791  43.0021 135.8804 0001359 265.9039 291.0781 15.27587332    11
